STARLINK-6150           
1 57119U 23090U   23311.50089402  .00032695  00000+0  24266-2 0  9991
2 57119  43.0011 230.4596 0001484 277.2547  82.8127 15.02496739 22079
STARLINK-6147           
1 57120U 23090V   23311.50645123  .00026852  00000+0  19976-2 0  9991
2 57120  43.0008 230.5032 0001346 277.9510  82.1180 15.02490497 22074
STARLINK-6152           
1 57121U 23090W   23311.49201515  .00021403  00000+0  15951-2 0  9999
2 57121  43.0014 230.3926 0000522 275.8697  84.2086 15.02524162 21883
STARLINK-6149           
1 57122U 23090X   23311.49756087  .00020496  00000+0  15283-2 0  9998
2 57122  43.0016 230.4344 0001357 244.7562 115.3140 15.02526629 22073
STARLINK-6154           
1 57123U 23090Y   23311.48869070  .00023916  00000+0  17809-2 0  9991
2 57123  43.0012 230.3673 0001314 278.1323  81.9371 15.02505478 21884
STARLINK-6146           
1 57124U 23090Z   23311.49534203  .00003169  00000+0  24973-3 0  9999
2 57124  43.0008 230.4185 0001208 268.6659  91.4045 15.02505482 22078
STARLINK-6100           
1 57125U 23090AA  23311.47574919  .00029149  00000+0  21662-2 0  9993
2 57125  43.0012 218.1178 0001473 257.5238 102.5440 15.02496015 22022
STARLINK-6167           
1 57126U 23090AB  23311.49423457  .00038486  00000+0  28508-2 0  9996
2 57126  43.0017 230.4100 0001768 271.6589  88.4050 15.02504609 22076
STARLINK-6165           
1 57127U 23090AC  23311.48424134  .00016687  00000+0  12487-2 0  9997
2 57127  43.0011 230.3337 0001317 278.2168  81.8525 15.02496896 21888
STARLINK-6163           
1 57128U 23090AD  23311.49090722  .00034555  00000+0  25625-2 0  9993
2 57128  43.0014 230.3833 0001140 281.1824  78.8890 15.02506593 21886
STARLINK-6170           
1 57129U 23090AE  23311.15666639  .00011760  00000+0  88518-3 0  9997
2 57129  43.0010 220.0241 0001471 259.2947 100.7729 15.02493384 21970
STARLINK-6172           
1 57130U 23090AF  23311.48536085  .00035207  00000+0  26100-2 0  9996
2 57130  43.0010 230.3419 0001216 281.9868  78.0838 15.02510749 21887
STARLINK-6162           
1 57131U 23090AG  23311.15336358 -.00004882  00000+0 -34684-3 0  9996
2 57131  43.0027 219.9985 0001191 274.3103  85.7603 15.02504976 21977
STARLINK-6128           
1 57132U 23090AH  23311.47869775 -.00004462  00000+0 -31556-3 0  9995
2 57132  43.0021 230.2929 0001218 281.1477  78.9228 15.02522423 21880
STARLINK-6143           
1 57133U 23090AJ  23311.47132023 -.00004978  00000+0 -35389-3 0  9995
2 57133  43.0011 218.0833 0001320 269.1206  90.9485 15.02514781 22022
STARLINK-6133           
1 57134U 23090AK  23311.15558345 -.00006043  00000+0 -43298-3 0  9993
2 57134  43.0028 220.0149 0001316 266.8196  93.2496 15.02509255 21972
STARLINK-6127           
1 57135U 23090AL  23311.46576447 -.00003680  00000+0 -25762-3 0  9991
2 57135  43.0029 218.0385 0001381 275.5432  84.5253 15.02514966 22021
STARLINK-6112           
1 57136U 23090AM  23311.08354697 -.00004443  00000+0 -31426-3 0  9993
2 57136  43.0028 220.3334 0001298 262.5139  97.5556 15.02513266 21984
STARLINK-5347           
1 57137U 23090AN  23311.46909633 -.00005361  00000+0 -38222-3 0  9993
2 57137  43.0035 218.0651 0001755 257.0169 103.0477 15.02518274 22024
STARLINK-5336           
1 57138U 23090AP  23311.14892481 -.00006135  00000+0 -43982-3 0  9990
2 57138  43.0027 219.9648 0001234 272.4281  87.6420 15.02504386 21977
STARLINK-5355           
1 57139U 23090AQ  23311.46466505 -.00004600  00000+0 -32589-3 0  9996
2 57139  43.0032 218.0244 0001250 255.4022 104.6682 15.02509650 22024
STARLINK-5354           
1 57140U 23090AR  23311.46799101 -.00004403  00000+0 -31124-3 0  9994
2 57140  43.0025 218.0564 0001320 270.7432  89.3259 15.02514610 21071
STARLINK-5357           
1 57141U 23090AS  23311.45909110 -.00003032  00000+0 -20951-3 0  9990
2 57141  43.0006 217.9858 0001090 284.5296  75.5426 15.02527763 22022
STARLINK-5361           
1 57142U 23090AT  23311.45465660  .00000724  00000+0  68731-4 0  9990
2 57142  43.0030 217.9484 0001126 274.4725  85.5989 15.02512000 22023
STARLINK-5358           
1 57143U 23090AU  23311.45134045 -.00004421  00000+0 -31261-3 0  9998
2 57143  43.0026 217.9266 0001401 261.5238  98.5445 15.02515350 22021
STARLINK-5150           
1 57144U 23090AV  23311.46243604 -.00004178  00000+0 -29453-3 0  9991
2 57144  43.0022 218.0093 0001616 260.2785  99.7875 15.02518752 22028
STARLINK-5768           
1 57145U 23090AW  23311.44243901  .00013146  00000+0  98697-3 0  9999
2 57145  43.0016 217.8566 0001643 244.4936 115.5736 15.02515142 22029
STARLINK-5791           
1 57146U 23090AX  23311.44912122 -.00004293  00000+0 -30311-3 0  9992
2 57146  43.0020 217.9104 0001369 262.6287  97.4400 15.02515278 22026
STARLINK-5765           
1 57147U 23090AY  23311.43799629  .00033018  00000+0  24486-2 0  9997
2 57147  43.0009 217.8235 0001344 242.7613 117.3093 15.02523615 22218
STARLINK-5788           
1 57148U 23090AZ  23311.43132902  .00016557  00000+0  12388-2 0  9990
2 57148  43.0014 217.7743 0001273 259.4997 100.5702 15.02506306 22027
STARLINK-5778           
1 57149U 23090BA  23311.38772026 -.00004416  00000+0 -29616-3 0  9998
2 57149  43.0011 192.2663 0001368 267.2472  92.8214 15.04457380 22506
STARLINK-5780           
1 57150U 23090BB  23311.44576999  .00022485  00000+0  16750-2 0  9996
2 57150  43.0008 217.8833 0001005 251.5855 108.4878 15.02518836 22216
STARLINK-5776           
1 57151U 23090BC  23311.44466623 -.00003817  00000+0 -26772-3 0  9995
2 57151  43.0027 217.8737 0001188 278.8246  81.2462 15.02525123 22213
STARLINK-6164           
1 57152U 23090BD  23311.44798508 -.00003606  00000+0 -25204-3 0  9991
2 57152  43.0026 217.8997 0002280 266.3270  93.7311 15.02529292 22216
STARLINK-5879           
1 57153U 23090BE  23311.40510299 -.00005674  00000+0 -40559-3 0  9994
2 57153  43.0037 205.4193 0001651 255.9794 104.0865 15.02510015 21858
STARLINK-6106           
1 57154U 23090BF  23311.43911186 -.00002518  00000+0 -17143-3 0  9995
2 57154  43.0024 217.8318 0001418 250.1306 109.9384 15.02529495 22211
STARLINK-6108           
1 57155U 23090BG  23311.15875877  .00022204  00000+0  16540-2 0  9992
2 57155  43.0006 219.1714 0001539 249.9826 110.0850 15.02526049 22172
STARLINK-6137           
1 57156U 23090BH  23311.42801614  .00002436  00000+0  19553-3 0  9994
2 57156  43.0016 217.7483 0001175 254.6529 105.4183 15.02498812 22218
STARLINK-5525           
1 57218U 23094A   23311.50182270 -.00000233  00000+0 -21661-5 0  9996
2 57218  43.0040 346.7203 0001064 280.7118  79.3605 15.02468650 18779
STARLINK-5520           
1 57219U 23094B   23311.49848809 -.00002456  00000+0 -16689-3 0  9993
2 57219  43.0056 346.6926 0001245 265.6273  94.4427 15.02516642 18778
STARLINK-5880           
1 57220U 23094C   23311.48295196  .00027174  00000+0  20219-2 0  9994
2 57220  43.0043 346.5743 0001912 269.1901  90.8722 15.02478719 18770
STARLINK-5875           
1 57221U 23094D   23311.49516040 -.00003064  00000+0 -21194-3 0  9998
2 57221  43.0041 346.6697 0001204 267.3630  92.7075 15.02524038 18779
STARLINK-5870           
1 57222U 23094E   23311.48960871  .00007621  00000+0  57906-3 0  9994
2 57222  43.0041 346.6258 0001243 268.6347  91.4353 15.02505768 19400
STARLINK-5519           
1 57223U 23094F   23311.49294342  .00024809  00000+0  18482-2 0  9991
2 57223  43.0036 346.6524 0001488 282.8973  77.1703 15.02472101 18778
STARLINK-5983           
1 57224U 23094G   23311.48629231 -.00038360  00000+0 -28479-2 0  9996
2 57224  43.0041 346.6018 0000814 262.6524  97.4226 15.02433432 18772
STARLINK-6294           
1 57225U 23094H   23311.55054175  .00052649  00000+0  38855-2 0  9997
2 57225  43.0039 346.2232 0001109 272.6070  87.4646 15.02514753 18781
STARLINK-6350           
1 57226U 23094J   23311.47518242  .00043674  00000+0  32301-2 0  9997
2 57226  43.0041 346.5143 0000881 273.3392  86.7349 15.02512218 18775
STARLINK-5996           
1 57227U 23094K   23311.48072874  .00024080  00000+0  17940-2 0  9997
2 57227  43.0044 346.5580 0001525 273.8719  86.1949 15.02483905 18778
STARLINK-6230           
1 57228U 23094L   23311.53833109  .00042483  00000+0  31423-2 0  9999
2 57228  43.0045 346.1285 0001063 269.5516  90.5205 15.02519500 18788
STARLINK-6233           
1 57229U 23094M   23311.54498795  .00013417  00000+0  10070-2 0  9999
2 57229  43.0039 346.1786 0000954 268.2797  91.7936 15.02512224 18783
STARLINK-6250           
1 57230U 23094N   23311.53278571 -.00007298  00000+0 -52653-3 0  9994
2 57230  43.0032 346.0917 0001242 268.5421  91.5279 15.02481155 18787
STARLINK-5840           
1 57231U 23094P   23311.50947385  .00027603  00000+0  20526-2 0  9991
2 57231  43.0042 345.9089 0001349 253.1882 106.8813 15.02494968 18786
STARLINK-5872           
1 57232U 23094Q   23311.50392892  .00009631  00000+0  72826-3 0  9991
2 57232  43.0021 345.8675 0000547 352.8268   7.2566 15.02473354 19447
STARLINK-5866           
1 57233U 23094R   23311.51613509  .00022060  00000+0  16460-2 0  9996
2 57233  43.0042 345.9616 0001729 267.0782  92.9862 15.02466619 18780
STARLINK-6368           
1 57234U 23094S   23311.50725317  .00014871  00000+0  11155-2 0  9994
2 57234  43.0042 345.8945 0001616 255.5552 104.5111 15.02470520 18780
STARLINK-6360           
1 57235U 23094T   23311.45187324  .00020662  00000+0  15427-2 0  9990
2 57235  43.0043 346.3391 0001617 267.2905  92.7752 15.02471996 18772
STARLINK-6315           
1 57236U 23094U   23311.44671043 -.00004380  00000+0 -30955-3 0  9991
2 57236  43.0043 334.1621 0001130 266.7419  93.3294 15.02510345 18914
STARLINK-6365           
1 57237U 23094V   23311.51280005  .00018451  00000+0  13798-2 0  9991
2 57237  43.0042 345.9364 0001531 266.1743  93.8924 15.02467533 18787
STARLINK-6334           
1 57238U 23094W   23311.50538826 -.00001923  00000+0 -12731-3 0  9993
2 57238  43.0045 333.7362 0001069 278.9494  81.1227 15.02544405 18920
